[{"OBJECT_NAME":"ONEWEB-0667","OBJECT_ID":"2023-029AH","EPOCH":"2026-03-09T15:13:33.453408","MEAN_MOTION":13.20771159,"ECCENTRICITY":0.0001542,"INCLINATION":87.9173,"RA_OF_ASC_NODE":294.3021,"ARG_OF_PERICENTER":93.4734,"MEAN_ANOMALY":266.6576,"EPHEMERIS_TYPE":0,"CLASSIFICATION_TYPE":"U","NORAD_CAT_ID":55827,"ELEMENT_SET_NO":999,"REV_AT_EPOCH":14800,"BSTAR":-0.00017237,"MEAN_MOTION_DOT":-5.7e-7,"MEAN_MOTION_DDOT":0},{"OBJECT_NAME":"THORAD AGENA D DEB","OBJECT_ID":"1970-025TK","EPOCH":"2026-03-08T20:30:06.788736","MEAN_MOTION":13.11023788,"ECCENTRICITY":0.01279366,"INCLINATION":100.0768,"RA_OF_ASC_NODE":86.1332,"ARG_OF_PERICENTER":178.2703,"MEAN_ANOMALY":181.8875,"EPHEMERIS_TYPE":0,"CLASSIFICATION_TYPE":"U","NORAD_CAT_ID":42553,"ELEMENT_SET_NO":999,"REV_AT_EPOCH":54241,"BSTAR":0.00016781361,"MEAN_MOTION_DOT":2.0e-7,"MEAN_MOTION_DDOT":0}]
